{
"type": "FeatureCollection",
"name": "barriers",
"crs": { "type": "name", "properties": { "name": "urn:ogc:def:crs:OGC:1.3:CRS84" } },
"features": [
{ "type": "Feature", "properties": { "NR": 1, "VTNDRAG": "IREÅN", "DNAMN": "Ire kvarn", "STATUS": "DEFINITIVT", "AGARE": "Clas-Göran Appelqvist, Ihre", "trout": 0, "perch": 0, "pike": 0, "ide": 0, "lamprey": 0, "Kommentar": "Framtida prio", "Kommenta_1": "Definitivt hinder ingen fisk tar sig uppströms", "Huvudarter": "Havsöring, flodnejonöga", "seadsgm": "SW295573", "dist_to_river": 2.8407448335443082 }, "geometry": { "type": "Point", "coordinates": [ 18.601449717899445, 57.831822932358975 ] } },
{ "type": "Feature", "properties": { "NR": 2, "VTNDRAG": "IREÅN", "DNAMN": "Furubjärs", "STATUS": "DEFINITIVT", "AGARE": "Lola Karlsson", "trout": 0, "perch": 0, "pike": 0, "ide": 0, "lamprey": 0, "Kommentar": "Ej prio då det ligger högt upp i ett biflöde med noll reproduktionsytor uppströms", "Kommenta_1": null, "Huvudarter": "Finns stationär öring", "seadsgm": "SW295573", "dist_to_river": 0.93369744335575011 }, "geometry": { "type": "Point", "coordinates": [ 18.613750697714345, 57.737751093530008 ] } },
{ "type": "Feature", "properties": { "NR": 3, "VTNDRAG": "IREÅN", "DNAMN": "Polhem", "STATUS": "DEFINITIVT", "AGARE": "ingen uppgift", "trout": 0, "perch": 0, "pike": 0, "ide": 0, "lamprey": 0, "Kommentar": "Ej prio i dagsläget då dämmet behövs för Tingstäde vattentäkt", "Kommenta_1": null, "Huvudarter": null, "seadsgm": "SW295573", "dist_to_river": 0.93369744335575011 }, "geometry": { "type": "Point", "coordinates": [ 18.613750697714345, 57.737751093530008 ] } },
{ "type": "Feature", "properties": { "NR": 4, "VTNDRAG": "GOTHEMÅN", "DNAMN": "Hörsne, Möllegårds", "STATUS": "DEFINITIVT", "AGARE": "Kurt Pettersson, Möllegårds", "trout": 0, "perch": 0, "pike": 0, "ide": 0, "lamprey": 0, "Kommentar": "Dammlucka uppfälld april-september, då definitivt annars passerbart för alla förekommande arter.", "Kommenta_1": "Ingen fiskvandring av betydelse hit upp. Iden leker längre ner i vattendraget och det finns inga bra lek- och uppväxtområden för havsöring uppströms luckan.", "Huvudarter": "Arter i Gothemån: havsöring, id abborre, gädda, flodnejonöga", "seadsgm": "SW292758", "dist_to_river": 0.91704298443939114 }, "geometry": { "type": "Point", "coordinates": [ 18.577794862584909, 57.556481643475905 ] } },
{ "type": "Feature", "properties": { "NR": 5, "VTNDRAG": "GOTHEMÅN", "DNAMN": "Hörsne, Möllegårds", "STATUS": "DEFINITIVT/PARTI", "AGARE": "Tall-Holmmyrars vattenavledningsf”re", "trout": 1, "perch": 0, "pike": 0, "ide": 0, "lamprey": 0, "Kommentar": "Grundvattendamm", "Kommenta_1": "Passerbart för havsöring men inte för id, gädda och abborre", "Huvudarter": "Arter i Gothemån: havsöring, id abborre, gädda, flodnejonöga", "seadsgm": "SW292758", "dist_to_river": 1.5637586908926415 }, "geometry": { "type": "Point", "coordinates": [ 18.598980834474311, 57.558459161327363 ] } },
{ "type": "Feature", "properties": { "NR": 6, "VTNDRAG": "GOTHEMÅN", "DNAMN": "Slitegårds kvarn", "STATUS": "DEFINITIVT/PARTI", "AGARE": "?", "trout": 1, "perch": 0, "pike": 0, "ide": 0, "lamprey": 0, "Kommentar": "Framtida prio", "Kommenta_1": "Passerbart för havsöring men för id, gädda och abborre är det endast vid vissa flöden som det går att passera", "Huvudarter": "Arter i Gothemån: havsöring, id abborre, gädda, flodnejonöga", "seadsgm": "SW292758", "dist_to_river": 2829.5182808702689 }, "geometry": { "type": "Point", "coordinates": [ 18.539331122053028, 57.541717352124508 ] } },
{ "type": "Feature", "properties": { "NR": 7, "VTNDRAG": "GOTHEMÅN", "DNAMN": "Möllebo kvarn", "STATUS": "DEFINITIVT", "AGARE": "Kjell- Åke Norman, Möllebos", "trout": 0, "perch": 0, "pike": 0, "ide": 0, "lamprey": 0, "Kommentar": "Ej prio då det finns flertalet vandringshinder nedströms som behöver åtgärdas i första hand", "Kommenta_1": null, "Huvudarter": "Arter i Gothemån: havsöring, id abborre, gädda, flodnejonöga", "seadsgm": "SW292758", "dist_to_river": 8.4496387918969642 }, "geometry": { "type": "Point", "coordinates": [ 18.468246699166201, 57.485285912267287 ] } },
{ "type": "Feature", "properties": { "NR": 8, "VTNDRAG": "NÄRKÅN", "DNAMN": "Ungbåtels kvarn", "STATUS": "Partiellt", "AGARE": "Ungbåtels", "trout": 1, "perch": 0, "pike": 0, "ide": 0, "lamprey": 0, "Kommentar": "Omlöp klart men fungerar inte 100%. Havsöring tar sig förbi eftersom det oftast är bra med vatten under lekvandringen. Endast havsöring så högt upp i vattendraget.", "Kommenta_1": null, "Huvudarter": "Arter i Närsån havsöring, id, silverruda abborre, gädda", "seadsgm": "SW293805", "dist_to_river": 15.059030125901678 }, "geometry": { "type": "Point", "coordinates": [ 18.495143561417148, 57.296634950817442 ] } },
{ "type": "Feature", "properties": { "NR": 9, "VTNDRAG": "NÄRKÅN", "DNAMN": "Lillrone kvarn", "STATUS": "DEFINITIVT", "AGARE": "Marie Lillro, Lillrone", "trout": 0, "perch": 0, "pike": 0, "ide": 0, "lamprey": 0, "Kommentar": "Ej prio då det ligger högt upp i systemet och miljön uppströms omfattas av dikningsföretag", "Kommenta_1": null, "Huvudarter": "Arter i Närsån havsöring, id, silverruda abborre, gädda", "seadsgm": "SW293805", "dist_to_river": 0.41854772638100124 }, "geometry": { "type": "Point", "coordinates": [ 18.501654498128534, 57.306423590873742 ] } },
{ "type": "Feature", "properties": { "NR": 10, "VTNDRAG": "NÄRKÅN", "DNAMN": "Etelhem, Tänglings", "STATUS": "DEFINITIVT", "AGARE": "Tänglings o Bare myrars vattenavledningsföretag", "trout": 0, "perch": 0, "pike": 0, "ide": 0, "lamprey": 0, "Kommentar": "Ej prio då det ligger högt upp i systemet och miljön uppströms omfattas av dikningsföretag", "Kommenta_1": null, "Huvudarter": "Arter i Närsån havsöring, id, silverruda abborre, gädda", "seadsgm": "SW293805", "dist_to_river": 3.8931692171301808 }, "geometry": { "type": "Point", "coordinates": [ 18.500644558476729, 57.320602047787197 ] } },
{ "type": "Feature", "properties": { "NR": 11, "VTNDRAG": "VASTEÅN", "DNAMN": "Vaste kvarn", "STATUS": "DEFINITIVT", "AGARE": "Medin/ Wasta Kvarn och såg", "trout": 0, "perch": 0, "pike": 0, "ide": 0, "lamprey": 0, "Kommentar": "Framtida prio", "Kommenta_1": "Havsöring kan möjligtvis passera men det är oklart.", "Huvudarter": null, "seadsgm": "SW296619", "dist_to_river": 1.0423367094712968 }, "geometry": { "type": "Point", "coordinates": [ 18.78600523021889, 57.839551479462429 ] } },
{ "type": "Feature", "properties": { "NR": 12, "VTNDRAG": "VASTEÅN", "DNAMN": "Träskmyr", "STATUS": "DEFINITIVT", "AGARE": "Tängelgårde vattenavledningsföretag", "trout": 0, "perch": 0, "pike": 0, "ide": 0, "lamprey": 0, "Kommentar": "Framtida prio", "Kommenta_1": "Havsöring leker i den nedre delen men endast 30 meter tillgängligt. Oklart om de tar sig förbi vandrimngshindret vid vissa vattenstånd.", "Huvudarter": null, "seadsgm": "SW296619", "dist_to_river": 1.936516473234835 }, "geometry": { "type": "Point", "coordinates": [ 18.763225477059454, 57.83660674959355 ] } },
{ "type": "Feature", "properties": { "NR": 13, "VTNDRAG": "Robbjänsån", "DNAMN": "Mölner, Klinte", "STATUS": "DEFINITIVT", "AGARE": "Mölner Valskvarn", "trout": 0, "perch": 0, "pike": 0, "ide": 0, "lamprey": 0, "Kommentar": "Ej prio då området uppströms inte är lämpliga biotoper", "Kommenta_1": null, "Huvudarter": "Havsöring,Havsöring flodnejonöga", "seadsgm": "SW297284", "dist_to_river": 17.35786288375235 }, "geometry": { "type": "Point", "coordinates": [ 18.225355188069276, 57.369245138904198 ] } },
{ "type": "Feature", "properties": { "NR": 17, "VTNDRAG": "ANERÅN", "DNAMN": "Aner kvarn", "STATUS": "WORKING", "AGARE": "Bengt Engström, Aner", "trout": 1, "perch": 0, "pike": 0, "ide": 0, "lamprey": 0, "Kommentar": "Omlöp klart och fungerar bra", "Kommenta_1": null, "Huvudarter": "Arter i Anerån: havsöring", "seadsgm": "SW295051", "dist_to_river": 2.3068109258530338 }, "geometry": { "type": "Point", "coordinates": [ 18.767221664705925, 57.69230295397049 ] } },
{ "type": "Feature", "properties": { "NR": 18, "VTNDRAG": "GOTHEMÅN", "DNAMN": "Sigsarve såg", "STATUS": "DEFINITIVT", "AGARE": "Pär Bergsten", "trout": 0, "perch": 0, "pike": 0, "ide": 0, "lamprey": 0, "Kommentar": "Ej prio. Högt upp i systemet. Torkar ut och tveksamt om det förekommer fisk som vandrar i området", "Kommenta_1": null, "Huvudarter": "Arter i Gothemån: havsöring, id abborre, gädda, flodnejonöga", "seadsgm": "SW293863", "dist_to_river": 744.00243006496896 }, "geometry": { "type": "Point", "coordinates": [ 18.363135114407903, 57.410655669519684 ] } },
{ "type": "Feature", "properties": { "NR": 19, "VTNDRAG": "BÄSTETRÄSK", "DNAMN": "Ahrs kvarn", "STATUS": "DEFINITIVT", "AGARE": "Ahrs Bruk AB", "trout": 0, "perch": 0, "pike": 0, "ide": 0, "lamprey": 0, "Kommentar": "Ej prio", "Kommenta_1": "Vi vet inte om det funnits passerbarhet historiskt eller om det bara rört sig om diffusa vattenvägar genom strandvallarna", "Huvudarter": "Arter i Arån, Havsöring, abborre och ål", "seadsgm": "SW296842", "dist_to_river": 5.9703776610663777 }, "geometry": { "type": "Point", "coordinates": [ 18.937934495549669, 57.916149782486002 ] } },
{ "type": "Feature", "properties": { "NR": 20, "VTNDRAG": "GOTHEMÅN", "DNAMN": "Norrbys kvarn", "STATUS": "DEFINITIVT", "AGARE": "Föreningen Gotlands fornvänner", "trout": 0, "perch": 0, "pike": 0, "ide": 0, "lamprey": 0, "Kommentar": "Ej prio", "Kommenta_1": "Högt upp i systemet och inga bra lek- och uppväxtområden uppströs. Torkar ut varje sommar uppströms", "Huvudarter": null, "seadsgm": "SW293863", "dist_to_river": 744.00243006496896 }, "geometry": { "type": "Point", "coordinates": [ 18.363135114407903, 57.410655669519684 ] } },
{ "type": "Feature", "properties": { "NR": 21, "VTNDRAG": "Svajdeån", "DNAMN": "Alskog, Rangsarve", "STATUS": "PARTIELLT", "AGARE": "Segerpalm, Rangsarve", "trout": 1, "perch": 0, "pike": 0, "ide": 0, "lamprey": 0, "Kommentar": "Prio 2", "Kommenta_1": "Havsöring tas sig förbi eftersom vi har en elfiskestation uppströms som alltid håller öringsyngel.", "Huvudarter": "Havsöring, flodnejonöga", "seadsgm": "SW296014", "dist_to_river": 3.4462602122989359 }, "geometry": { "type": "Point", "coordinates": [ 18.669218233642681, 57.341083541788947 ] } },
{ "type": "Feature", "properties": { "NR": 22, "VTNDRAG": "Svajdeån", "DNAMN": "Alskog, Smiss", "STATUS": "DEFINITIVT", "AGARE": "Sven Sjöstrand, Liffride", "trout": 0, "perch": 0, "pike": 0, "ide": 0, "lamprey": 0, "Kommentar": "Ej prio. Dammlucka för underbevattning av uppströms liggande myr.", "Kommenta_1": null, "Huvudarter": "Havsöring, flodnejonöga", "seadsgm": "SW296014", "dist_to_river": 3.6572765694984697 }, "geometry": { "type": "Point", "coordinates": [ 18.665509924097861, 57.352915587773779 ] } },
{ "type": "Feature", "properties": { "NR": 23, "VTNDRAG": "SNODERÅN", "DNAMN": "Lojsta annex", "STATUS": "DEFINITIVT", "AGARE": "Visby stift", "trout": 0, "perch": 0, "pike": 0, "ide": 0, "lamprey": 0, "Kommentar": "Ej prio", "Kommenta_1": "Dammlucka och långt upp i systemet", "Huvudarter": null, "seadsgm": "SW293411", "dist_to_river": 0.26391673357252321 }, "geometry": { "type": "Point", "coordinates": [ 18.38623049725058, 57.312778613539685 ] } },
{ "type": "Feature", "properties": { "NR": 24, "VTNDRAG": "LUMMELUNDAÅN", "DNAMN": "Lummelundsbruk", "STATUS": "WORKING", "AGARE": "SK Lummelunda AB", "trout": 1, "perch": 0, "pike": 0, "ide": 0, "lamprey": 0, "Kommentar": "Åtgärdat - borttaget", "Kommenta_1": null, "Huvudarter": "Havsöring", "seadsgm": "SW297273", "dist_to_river": 180.6510534774996 }, "geometry": { "type": "Point", "coordinates": [ 18.401443911568677, 57.739950605556174 ] } },
{ "type": "Feature", "properties": { "NR": 26, "VTNDRAG": "LUMMELUNDAN", "DNAMN": "Lummelundsbruks kvarn", "STATUS": "DEFINITIVT", "AGARE": "SK Lummelunda AB", "trout": 0, "perch": 0, "pike": 0, "ide": 0, "lamprey": 0, "Kommentar": "Prioriterat åtgärdas 2026", "Kommenta_1": null, "Huvudarter": "Havsöring", "seadsgm": "SW297273", "dist_to_river": 1.9897289323743221 }, "geometry": { "type": "Point", "coordinates": [ 18.402834707150934, 57.741513300781413 ] } },
{ "type": "Feature", "properties": { "NR": 27, "VTNDRAG": "GOTHEMÅN", "DNAMN": "Källunge, Skäggstäde", "STATUS": "WORKING", "AGARE": "Ingvar Nybom mfl", "trout": 1, "perch": 0, "pike": 0, "ide": 0, "lamprey": 0, "Kommentar": "Åtgärdat - borttaget", "Kommenta_1": null, "Huvudarter": "Havsöring så högt upp i systemet", "seadsgm": "SW292758", "dist_to_river": 1.0591063361357032 }, "geometry": { "type": "Point", "coordinates": [ 18.567628098192319, 57.623970289864864 ] } },
{ "type": "Feature", "properties": { "NR": 28, "VTNDRAG": "IDÅN", "DNAMN": "Eskelhem, Liffedarve", "STATUS": "WORKING", "AGARE": "SMHI", "trout": 1, "perch": 0, "pike": 0, "ide": 0, "lamprey": 0, "Kommentar": "Åtgärdas 2026 i sept", "Kommenta_1": null, "Huvudarter": "Havsöring", "seadsgm": "SW293643", "dist_to_river": 7.0558762379705522 }, "geometry": { "type": "Point", "coordinates": [ 18.197041679450447, 57.480808304745139 ] } },
{ "type": "Feature", "properties": { "NR": 32, "VTNDRAG": "HAU TRÄSK", "DNAMN": "Hauträskbäcken", "STATUS": "WORKING", "AGARE": "Naturvårdsverket", "trout": 0, "perch": 1, "pike": 0, "ide": 0, "lamprey": 0, "Kommentar": "Omlöp klart", "Kommenta_1": "Abborre kan nu vandra upp i Hau träsk", "Huvudarter": "Ffa abborre. Finns en sidovåtmark för gädda men den har inte fungerat.", "seadsgm": "SW296609", "dist_to_river": 4.8869193222902965 }, "geometry": { "type": "Point", "coordinates": [ 19.014643962742625, 57.891355881189014 ] } },
{ "type": "Feature", "properties": { "NR": 33, "VTNDRAG": "Vällesån", "DNAMN": "Mölner myr utlopp, Fleringe", "STATUS": "DEFINITIVT", "AGARE": "Fam. Eklöf, Utoje", "trout": 0, "perch": 0, "pike": 0, "ide": 0, "lamprey": 0, "Kommentar": "Ej prio - långt upp i sytemet", "Kommenta_1": null, "Huvudarter": "I de nedre delarna havsöring och gädda", "seadsgm": "SW294589", "dist_to_river": 2.4593941925891292 }, "geometry": { "type": "Point", "coordinates": [ 18.861485870005222, 57.846822386471473 ] } },
{ "type": "Feature", "properties": { "NR": 34, "VTNDRAG": "VÄGUMEÅN", "DNAMN": "Vägumeån", "STATUS": "WORKING", "AGARE": "Vägume dikningsföretag", "trout": 1, "perch": 1, "pike": 1, "ide": 0, "lamprey": 0, "Kommentar": "Felaktig trumma som åtgärdades 2024", "Kommenta_1": null, "Huvudarter": "Ffa havsöring. Gädda i den nedre delen ( cirka 1500 meter) samt kanske abborre", "seadsgm": "SW296996", "dist_to_river": 1.3041346938499787 }, "geometry": { "type": "Point", "coordinates": [ 18.811616523558865, 57.763349677203813 ] } },
{ "type": "Feature", "properties": { "NR": 35, "VTNDRAG": "VIKEN", "DNAMN": "Kallgateburg", "STATUS": "DEFINITIVT", "AGARE": "Rune Thomsson, Hejnum", "trout": 0, "perch": 0, "pike": 0, "ide": 0, "lamprey": 0, "Kommentar": "Gammal dämning vid såg - ska eventuellt åtgärdas av Heidelberg cemenat AB. Ingen fisk vandrar hit upp", "Kommenta_1": null, "Huvudarter": null, "seadsgm": "SW295464", "dist_to_river": 1.7799910771036243 }, "geometry": { "type": "Point", "coordinates": [ 18.68534502083229, 57.691695548787941 ] } },
{ "type": "Feature", "properties": { "NR": 36, "VTNDRAG": "VIKEN", "DNAMN": "Bandhagsån", "STATUS": "PARTIELLT", "AGARE": "Carp, Gane gård", "trout": 1, "perch": 0, "pike": 0, "ide": 0, "lamprey": 0, "Kommentar": "Dammlucka?", "Kommenta_1": "Endast havsöring och den tid som lekvandringen sker är luckan nedfälld.", "Huvudarter": "Havsöring", "seadsgm": "SW295464", "dist_to_river": 287.54223454736075 }, "geometry": { "type": "Point", "coordinates": [ 18.70551856906393, 57.644642501354689 ] } },
{ "type": "Feature", "properties": { "NR": 37, "VTNDRAG": null, "DNAMN": "Klinthagenbäcken/Urbanbäcken", "STATUS": "WORKING", "AGARE": "Anders Ahlström, L„rbro", "trout": 1, "perch": 0, "pike": 0, "ide": 0, "lamprey": 1, "Kommentar": "Åtgärdat - borttaget", "Kommenta_1": null, "Huvudarter": "Havsöring, flodnejonöga", "seadsgm": "SW295536", "dist_to_river": 1.2605346357882825 }, "geometry": { "type": "Point", "coordinates": [ 18.806721900153256, 57.820850138342472 ] } },
{ "type": "Feature", "properties": { "NR": 38, "VTNDRAG": "VARBOSÅN", "DNAMN": "Stenhuse kvarn", "STATUS": "WORKING", "AGARE": "Krister Sjögren", "trout": 1, "perch": 1, "pike": 0, "ide": 0, "lamprey": 0, "Kommentar": "Omlöp klart", "Kommenta_1": null, "Huvudarter": "Havsöring, abborre", "seadsgm": "SW293863", "dist_to_river": 1.7636640623988133 }, "geometry": { "type": "Point", "coordinates": [ 18.190305678832434, 57.406067050596555 ] } },
{ "type": "Feature", "properties": { "NR": 39, "VTNDRAG": "VARBOSÅN", "DNAMN": "Petarve kvarn", "STATUS": "PARTIELLT", "AGARE": null, "trout": 1, "perch": 0, "pike": 0, "ide": 0, "lamprey": 0, "Kommentar": "Prioriterad", "Kommenta_1": "Endast havsöring som vandrar hit upp och de kan ta sig förbi vid bra flöden", "Huvudarter": "Havsöring, abborre", "seadsgm": "SW293863", "dist_to_river": 1.5810035250248726 }, "geometry": { "type": "Point", "coordinates": [ 18.250339431156899, 57.43512947811162 ] } },
{ "type": "Feature", "properties": { "NR": 40, "VTNDRAG": "VARBOSÅN", "DNAMN": "Varbosån", "STATUS": "DEFINITIVT", "AGARE": "Walve, Forse, Klintehamn", "trout": 0, "perch": 0, "pike": 0, "ide": 0, "lamprey": 0, "Kommentar": "Ej prio", "Kommenta_1": "Högt upp i systemet. Ingen fiskvandring hit upp.", "Huvudarter": "Havsöring", "seadsgm": "SW293863", "dist_to_river": 1.5353659584580412 }, "geometry": { "type": "Point", "coordinates": [ 18.311749351142357, 57.406984240087056 ] } },
{ "type": "Feature", "properties": { "NR": 41, "VTNDRAG": "STORSUND", "DNAMN": "Storsundsån, Kyrkebinge,", "STATUS": "DEFINITIVT", "AGARE": "Karl- Rune Silvin, Kyrkebinge", "trout": 0, "perch": 0, "pike": 0, "ide": 0, "lamprey": 0, "Kommentar": "Ej prio. Dammlucka", "Kommenta_1": "Högt upp i systemet", "Huvudarter": "Havsöring upp till Storsund", "seadsgm": "SW294481", "dist_to_river": 5.3178271204798495 }, "geometry": { "type": "Point", "coordinates": [ 18.730043232366722, 57.560306756776981 ] } },
{ "type": "Feature", "properties": { "NR": 42, "VTNDRAG": "SNODERN", "DNAMN": "Levidebäcken", "STATUS": "PARTIELLT", "AGARE": "Hushållningsällskapet", "trout": 1, "perch": 0, "pike": 0, "ide": 0, "lamprey": 0, "Kommentar": "Oklart hur hindret ser ut men högt upp i biflöde.", "Kommenta_1": "Behöver kollas! Rör endast havsöring", "Huvudarter": "Havsöring", "seadsgm": "SW293411", "dist_to_river": 0.43099191015103266 }, "geometry": { "type": "Point", "coordinates": [ 18.281518276360789, 57.320950019943616 ] } },
{ "type": "Feature", "properties": { "NR": 43, "VTNDRAG": "SNODERN", "DNAMN": "Levidebäcken", "STATUS": "PARTIELLT", "AGARE": "Benny Nilsson, Levide", "trout": 1, "perch": 0, "pike": 0, "ide": 0, "lamprey": 0, "Kommentar": "Oklart hur hindret ser ut men högt upp i biflöde.", "Kommenta_1": "Behöver kollas! Rör endast havsöring", "Huvudarter": "Havsöring", "seadsgm": "SW293411", "dist_to_river": 4.0877114740536946 }, "geometry": { "type": "Point", "coordinates": [ 18.283295762010962, 57.316849477607327 ] } },
{ "type": "Feature", "properties": { "NR": 44, "VTNDRAG": "SNODERN", "DNAMN": "Levidebäcken", "STATUS": "PARTIELLT", "AGARE": "Orleifsson, Levide", "trout": 1, "perch": 0, "pike": 0, "ide": 0, "lamprey": 0, "Kommentar": "Oklart hur hindret ser ut men högt upp i biflöde.", "Kommenta_1": "Behöver kollas! Rör endast havsöring", "Huvudarter": "Havsöring", "seadsgm": "SW293411", "dist_to_river": 0.37528285246915877 }, "geometry": { "type": "Point", "coordinates": [ 18.275012551121982, 57.306665139049819 ] } },
{ "type": "Feature", "properties": { "NR": 45, "VTNDRAG": "SNODERN", "DNAMN": "Levidebäcken", "STATUS": "PARTIELLT", "AGARE": "Rannberg, Skinnarve,Levide", "trout": 1, "perch": 0, "pike": 0, "ide": 0, "lamprey": 0, "Kommentar": "Oklart hur hindret ser ut men högt upp i biflöde.", "Kommenta_1": "Behöver kollas! Rör endast havsöring", "Huvudarter": "Havsöring", "seadsgm": "SW293411", "dist_to_river": 1.0764329936162851 }, "geometry": { "type": "Point", "coordinates": [ 18.272417929744311, 57.291118558347527 ] } },
{ "type": "Feature", "properties": { "NR": 46, "VTNDRAG": "SNODERN", "DNAMN": "Snoderån, Linde", "STATUS": "DEFINITIVT", "AGARE": "Samfällighet", "trout": 0, "perch": 0, "pike": 0, "ide": 0, "lamprey": 0, "Kommentar": "Dammlucka, ej prio", "Kommenta_1": "Endast havsöring som eventuellt vandrar så långt upp i systemet", "Huvudarter": "Havsöring", "seadsgm": "SW293411", "dist_to_river": 1.2316058203822389 }, "geometry": { "type": "Point", "coordinates": [ 18.360814207914483, 57.284236068592591 ] } },
{ "type": "Feature", "properties": { "NR": 48, "VTNDRAG": "SNODERN", "DNAMN": "Snoderån, Linde", "STATUS": "DEFINITIVT", "AGARE": "Clas Jakobsson, Linde", "trout": 0, "perch": 0, "pike": 0, "ide": 0, "lamprey": 0, "Kommentar": "Ej prio. Uppströms Hemse", "Kommenta_1": null, "Huvudarter": null, "seadsgm": "SW293411", "dist_to_river": 1.9458607536944359 }, "geometry": { "type": "Point", "coordinates": [ 18.41315520084726, 57.262561811817257 ] } },
{ "type": "Feature", "properties": { "NR": 49, "VTNDRAG": "SJÄLSÖÅN", "DNAMN": "Själsöån", "STATUS": "DEFINITIVT", "AGARE": "Hästnäs myrs dikningsföretag", "trout": 0, "perch": 0, "pike": 0, "ide": 0, "lamprey": 0, "Kommentar": "Ej prio, uppströms naturligt vandringshinder. Inga fiskarter kan vandra mer än 500 meter upp i Själsöån", "Kommenta_1": null, "Huvudarter": "Havsöring i den nedre delen samt flodnejonöga", "seadsgm": "SW296300", "dist_to_river": 0.89773767392772652 }, "geometry": { "type": "Point", "coordinates": [ 18.375448346396546, 57.694244614373829 ] } },
{ "type": "Feature", "properties": { "NR": 50, "VTNDRAG": "IDÅN", "DNAMN": "Idån, Tofta", "STATUS": "DEFINITIVT", "AGARE": null, "trout": 0, "perch": 0, "pike": 0, "ide": 0, "lamprey": 0, "Kommentar": "Ej prio", "Kommenta_1": "Ovanförliggande område ej intressant för fisk.", "Huvudarter": null, "seadsgm": "SW293643", "dist_to_river": 2.9589318894048167 }, "geometry": { "type": "Point", "coordinates": [ 18.187980686311455, 57.535535989418655 ] } },
{ "type": "Feature", "properties": { "NR": 51, "VTNDRAG": "LUMMELUNDAN", "DNAMN": "Lummelundsbruk", "STATUS": "WORKING", "AGARE": "™din, Lummelundsbruk", "trout": 1, "perch": 0, "pike": 0, "ide": 0, "lamprey": 0, "Kommentar": "Åtgärdat - borttaget", "Kommenta_1": null, "Huvudarter": "Havsöring", "seadsgm": "SW297273", "dist_to_river": 22.366704382494653 }, "geometry": { "type": "Point", "coordinates": [ 18.401835498809007, 57.741791863872699 ] } },
{ "type": "Feature", "properties": { "NR": 52, "VTNDRAG": "LUMMELUNDAN", "DNAMN": "Lummelundsbruk", "STATUS": "WORKING", "AGARE": "™din, Lummelundsbruk", "trout": 1, "perch": 0, "pike": 0, "ide": 0, "lamprey": 0, "Kommentar": "Åtgärdat - borttaget", "Kommenta_1": null, "Huvudarter": "Havsöring", "seadsgm": "SW297273", "dist_to_river": 26.780015796583655 }, "geometry": { "type": "Point", "coordinates": [ 18.402660477246489, 57.741805641538626 ] } },
{ "type": "Feature", "properties": { "NR": 53, "VTNDRAG": "STORSUND", "DNAMN": "Gajrvide såg, Gothem", "STATUS": "PARTIELLT", "AGARE": "Samfällighet", "trout": 1, "perch": 0, "pike": 0, "ide": 0, "lamprey": 0, "Kommentar": "Ej prio. Passerbart öring. Inga andra arter än havsöring och storspigg som vandrar i denna del av vattendraget", "Kommenta_1": null, "Huvudarter": "Havsöring", "seadsgm": "SW294481", "dist_to_river": 0.89828215361787123 }, "geometry": { "type": "Point", "coordinates": [ 18.76591827916512, 57.561038957368027 ] } },
{ "type": "Feature", "properties": { "NR": 54, "VTNDRAG": "BÅNGÅN", "DNAMN": "Dämme med gammal ålfälla, Bångån", "STATUS": "DEFINITIVT", "AGARE": "Vivlings 2:1, Hellvi", "trout": 0, "perch": 0, "pike": 0, "ide": 0, "lamprey": 0, "Kommentar": "Omlöp dålig funktion. Tidigare vandrade gädda, abborre, id och utsatt ål mellan Fardume träsk och havet. Ål vandrar fortfarande ut från Fardume från de utsättningar som gjordes tidigare (1980-90 tal). Havsöring vandrar upp till dämmet men ovan", "Kommenta_1": null, "Huvudarter": "Havsöring, gädda", "seadsgm": "SW296566", "dist_to_river": 6.3565048656980485 }, "geometry": { "type": "Point", "coordinates": [ 18.900518335336038, 57.772293599930464 ] } },
{ "type": "Feature", "properties": { "NR": 55, "VTNDRAG": "GOTHEMSÅN", "DNAMN": "Kvarndamm, Krampbro", "STATUS": "PARTIELLT", "AGARE": "Samfällighet, Fole", "trout": 1, "perch": 0, "pike": 0, "ide": 0, "lamprey": 0, "Kommentar": "Oklart hur hindret ser ut. Endast havsöring och de tar sig förbi.", "Kommenta_1": "Behöver kollas!", "Huvudarter": "Havsöring", "seadsgm": "SW292758", "dist_to_river": 1.1886750599342897 }, "geometry": { "type": "Point", "coordinates": [ 18.540509867098518, 57.632851355067103 ] } },
{ "type": "Feature", "properties": { "NR": 56, "VTNDRAG": "HÄGVARDSÅN", "DNAMN": "Hägvardsån", "STATUS": "DEFINITIVT", "AGARE": "Hall, Hägvards 2:11", "trout": 0, "perch": 0, "pike": 0, "ide": 0, "lamprey": 0, "Kommentar": "Klintkant - naturligt hinder", "Kommenta_1": null, "Huvudarter": "Havsöring i de nedersta 100 metrarna", "seadsgm": "SW296287", "dist_to_river": 0.11612071552456325 }, "geometry": { "type": "Point", "coordinates": [ 18.681553038766591, 57.910334855489957 ] } },
{ "type": "Feature", "properties": { "NR": 57, "VTNDRAG": "KRISTI KANAL", "DNAMN": "Kristi kanal, hålldamm", "STATUS": "DEFINITIVT", "AGARE": "Hall, Västös 1:5", "trout": 0, "perch": 0, "pike": 0, "ide": 0, "lamprey": 0, "Kommentar": "Ej prio eftersom klintkanten hindrar all fiskvandring endast 10 meter från havet", "Kommenta_1": null, "Huvudarter": null, "seadsgm": "SW295597", "dist_to_river": 8.5047535845314197 }, "geometry": { "type": "Point", "coordinates": [ 18.770835706526555, 57.886620612139943 ] } },
{ "type": "Feature", "properties": { "NR": 58, "VTNDRAG": "KOPPARSVIK", "DNAMN": "Kopparviksbäcken, vägtrum", "STATUS": "PARTIELLT", "AGARE": null, "trout": 1, "perch": 0, "pike": 0, "ide": 0, "lamprey": 0, "Kommentar": "Passerbar för havsöring. Öring är enda arten i vattendraget.", "Kommenta_1": "Öringen vandrar cirka 150 meter innan det är stopp pga klintkanten.", "Huvudarter": "Havsöring, flodnejonöga", "seadsgm": "SW295046", "dist_to_river": 2856.3082659771885 }, "geometry": { "type": "Point", "coordinates": [ 18.274865821693588, 57.628124906948898 ] } },
{ "type": "Feature", "properties": { "NR": 60, "VTNDRAG": "ROBBJÄNSÅN", "DNAMN": "Robbjänsån, Klinte", "STATUS": "WORKING", "AGARE": "Valle o Värsände dikningsföretag", "trout": 1, "perch": 0, "pike": 0, "ide": 0, "lamprey": 1, "Kommentar": "Åtgärdat - borttaget", "Kommenta_1": null, "Huvudarter": "Havsöring, flodnejonöga", "seadsgm": "SW297284", "dist_to_river": 0.47590531886220039 }, "geometry": { "type": "Point", "coordinates": [ 18.199771060755307, 57.388766044530108 ] } },
{ "type": "Feature", "properties": { "NR": 61, "VTNDRAG": "SNODERÅN", "DNAMN": "Kvarn, Gerum", "STATUS": "DEFINITIVT", "AGARE": "Ejdertun, Ajmunde, Gerum", "trout": 0, "perch": 0, "pike": 0, "ide": 0, "lamprey": 0, "Kommentar": "Oklart hur hindret ser ut. Endast havsöring som vandrar så långt upp i systemet", "Kommenta_1": null, "Huvudarter": null, "seadsgm": "SW293411", "dist_to_river": 11.78779430967454 }, "geometry": { "type": "Point", "coordinates": [ 18.335387420001098, 57.296932659932978 ] } },
{ "type": "Feature", "properties": { "NR": 62, "VTNDRAG": "SNODERÅN", "DNAMN": "Gerumsbäcken, damm", "STATUS": "DEFINITIVT", "AGARE": "Tyrefors, Skote, Lojsta", "trout": 0, "perch": 0, "pike": 0, "ide": 0, "lamprey": 0, "Kommentar": "Oklart hur hindret ser ut men långt upp i systemet. Endast havsöring som vandrar så långt upp i systemet", "Kommenta_1": null, "Huvudarter": null, "seadsgm": "SW293411", "dist_to_river": 8.3594834614363638 }, "geometry": { "type": "Point", "coordinates": [ 18.34668773942402, 57.317119071484534 ] } },
{ "type": "Feature", "properties": { "NR": 63, "VTNDRAG": "SNODERÅN", "DNAMN": "Gerumsbäcken, damm", "STATUS": "DEFINITIVT", "AGARE": "Tyrefors, Skote, Lojsta", "trout": 0, "perch": 0, "pike": 0, "ide": 0, "lamprey": 0, "Kommentar": "Oklart hur hindret ser ut men långt upp i systemet. Endast havsöring som vandrar så långt upp i systemet", "Kommenta_1": null, "Huvudarter": null, "seadsgm": "SW293411", "dist_to_river": 6.5373405358615875 }, "geometry": { "type": "Point", "coordinates": [ 18.346365740653567, 57.316866952489775 ] } },
{ "type": "Feature", "properties": { "NR": 64, "VTNDRAG": "VARBOSÅN", "DNAMN": "Mästerbykanalen, lucka", "STATUS": "PARTIELLT", "AGARE": "Vall myrs dikningsföretag", "trout": 0, "perch": 0, "pike": 0, "ide": 0, "lamprey": 0, "Kommentar": "Långt upp isystemet", "Kommenta_1": null, "Huvudarter": null, "seadsgm": "SW293863", "dist_to_river": 16.554603680164405 }, "geometry": { "type": "Point", "coordinates": [ 18.350070381425631, 57.492213531409767 ] } },
{ "type": "Feature", "properties": { "NR": 66, "VTNDRAG": "NÄRKÅN", "DNAMN": "Närkån, Strömma", "STATUS": "PARTIELLT", "AGARE": "Samfällighet 2:1", "trout": 1, "perch": 0, "pike": 0, "ide": 0, "lamprey": 0, "Kommentar": "Oklart hur hindret ser ut", "Kommenta_1": null, "Huvudarter": null, "seadsgm": "SW293805", "dist_to_river": 13.80399999942165 }, "geometry": { "type": "Point", "coordinates": [ 18.493906789462571, 57.29130231089912 ] } },
{ "type": "Feature", "properties": { "NR": 67, "VTNDRAG": "SNODERÅN", "DNAMN": "Snoderån, sockengräns", "STATUS": "PARTIELLT", "AGARE": "Markavvattningsföretag", "trout": 1, "perch": 0, "pike": 0, "ide": 1, "lamprey": 0, "Kommentar": "Dammlucka uppfälld april-september, då definitivt annars passerbart för alla förekommande arter.", "Kommenta_1": null, "Huvudarter": "Id, havsöring", "seadsgm": "SW293411", "dist_to_river": 3.6597860439580709 }, "geometry": { "type": "Point", "coordinates": [ 18.318058602860347, 57.229548742246806 ] } },
{ "type": "Feature", "properties": { "NR": 68, "VTNDRAG": "SNODERÅN", "DNAMN": "Snoderån, nedre", "STATUS": "PARTIELLT", "AGARE": "Markavvattningsföretag", "trout": 1, "perch": 0, "pike": 0, "ide": 1, "lamprey": 0, "Kommentar": "Dammlucka uppfälld april-september, då definitivt annars passerbart för alla förekommande arter.", "Kommenta_1": null, "Huvudarter": "Id, havsöring", "seadsgm": "SW293411", "dist_to_river": 5.0779007523609963 }, "geometry": { "type": "Point", "coordinates": [ 18.200951880106288, 57.233488950174582 ] } }
]
}
